[{"OBJECT_NAME":"STARLINK-30604","OBJECT_ID":"2023-160A","EPOCH":"2026-03-09T23:40:49.562400","MEAN_MOTION":15.26728625,"ECCENTRICITY":0.00051432,"INCLINATION":43.0091,"RA_OF_ASC_NODE":76.0129,"ARG_OF_PERICENTER":307.6879,"MEAN_ANOMALY":52.3506,"EPHEMERIS_TYPE":0,"CLASSIFICATION_TYPE":"U","NORAD_CAT_ID":58075,"ELEMENT_SET_NO":999,"REV_AT_EPOCH":13299,"BSTAR":0.00020541001,"MEAN_MOTION_DOT":5.252e-5,"MEAN_MOTION_DDOT":0},{"OBJECT_NAME":"CZ-6A DEB","OBJECT_ID":"2024-140AAN","EPOCH":"2026-03-09T15:08:07.195776","MEAN_MOTION":15.20547394,"ECCENTRICITY":0.0064261,"INCLINATION":89.3669,"RA_OF_ASC_NODE":306.3092,"ARG_OF_PERICENTER":93.6352,"MEAN_ANOMALY":267.2246,"EPHEMERIS_TYPE":0,"CLASSIFICATION_TYPE":"U","NORAD_CAT_ID":61480,"ELEMENT_SET_NO":999,"REV_AT_EPOCH":8198,"BSTAR":0.0033609,"MEAN_MOTION_DOT":0.00078405,"MEAN_MOTION_DDOT":0}]
